CHINASAT 12 (ZX 12)     
1 39017U 12067A   24155.56577495 -.00000203  00000+0  00000+0 0  9995
2 39017   0.0423 118.6343 0002927 311.7238 113.3051  1.00272181 42059
EUTELSAT 70B            
1 39020U 12069A   24155.49999756 -.00000039  00000+0  00000+0 0  9998
2 39020   0.0627   3.0970 0003751  61.1281  78.7003  1.00271555 42057
YAMAL 402               
1 39022U 12070A   24155.56881074  .00000090  00000+0  00000+0 0  9999
2 39022   0.0390 124.8601 0003592 309.6575  77.6455  1.00271594 41947
SKYNET 5D               
1 39034U 12075A   24155.56837563  .00000103  00000+0  00000+0 0  9996
2 39034   0.0655 351.7149 0003559  87.7606  70.3928  1.00270349 41700
MEXSAT 3                
1 39035U 12075B   24155.61568571 -.00000021  00000+0  00000+0 0  9993
2 39035   0.0502  99.3128 0001892 305.6936 314.3930  1.00270290 41721
TDRS 11                 
1 39070U 13004A   24155.49844802  .00000080  00000+0  00000+0 0  9999
2 39070   2.7406  11.2170 0006478  46.5054 199.7249  1.00269671 39231
AMAZONAS 3              
1 39078U 13006A   24155.54583677 -.00000278  00000+0  00000+0 0  9995
2 39078   0.0283 229.5701 0001925 241.6915 276.7277  1.00272521 37449
AZERSPACE 1             
1 39079U 13006B   24155.17688358  .00000137  00000+0  00000+0 0  9990
2 39079   0.0141  36.7943 0001662  59.1323 265.8708  1.00268736 41347
SBIRS GEO-2 (USA 241)   
1 39120U 13011A   24155.47885108 -.00000254  00000+0  00000+0 0  9999
2 39120   2.9578  46.9689 0001891  19.9055 319.9263  1.00271256 41077
EUTELSAT 117 WEST A     
1 39122U 13012A   24155.55211851 -.00000008  00000+0  00000+0 0  9996
2 39122   0.0501  78.0012 0002746 359.8808 256.5688  1.00271719 40971
ANIK G1                 
1 39127U 13014A   24155.55975208 -.00000069  00000+0  00000+0 0  9993
2 39127   0.0176 318.6803 0001129 100.0804 287.9408  1.00271523 40792
CHINASAT 11 (ZX 11)     
1 39157U 13020A   24155.57636313 -.00000286  00000+0  00000+0 0  9997
2 39157   0.0185 316.1643 0002404  23.8868 217.8602  1.00269225 40445
EUTELSAT 7B             
1 39163U 13022A   24155.55932528  .00000052  00000+0  00000+0 0  9991
2 39163   0.0665 356.3373 0004655  39.3392  65.1798  1.00272744 40513
WGS F5 (USA 243)        
1 39168U 13024A   24155.38159728 -.00000280  00000+0  00000+0 0  9996
2 39168   0.0194 346.6280 0000508 288.3665  62.2014  1.00269183 39707
SES-6                   
1 39172U 13026A   24155.44702132 -.00000257  00000+0  00000+0 0  9997
2 39172   0.0249 320.3086 0001837 113.6874 298.8079  1.00270924 40260
IRNSS-1A                
1 39199U 13034A   24154.85314628  .00000065  00000+0  00000+0 0  9994
2 39199  34.0470  74.6627 0018041 195.9104 343.4980  1.00267953 40183
MUOS-2                  
1 39206U 13036A   24155.60806223  .00000068  00000+0  00000+0 0  9999
2 39206   3.6053  40.3901 0050647 178.4513  75.5915  1.00275107 39734
ALPHASAT                
1 39215U 13038A   24155.56289321  .00000136  00000+0  00000+0 0  9996
2 39215   2.8906   7.6228 0002071  57.5453  54.8075  1.00271454 36564
INSAT-3D                
1 39216U 13038B   24155.57420615 -.00000152  00000+0  00000+0 0  9990
2 39216   0.0156 321.1273 0000998 308.4965 271.7035  1.00270411 39626
WGS F6 (USA 244)        
1 39222U 13041A   24155.53550557  .00000094  00000+0  00000+0 0  9990
2 39222   0.0181 343.7686 0000557 302.2126  24.0742  1.00268655 38597
ES'HAIL 1               
1 39233U 13044A   24155.56298023  .00000148  00000+0  00000+0 0  9995
2 39233   0.0493 347.8182 0002053  80.8813  51.9931  1.00273602 39178
GSAT-7                  
1 39234U 13044B   24155.00013767 -.00000073  00000+0  00000+0 0  9993
2 39234   0.0461 120.1805 0005730 159.9252  45.8875  1.00270953 37867
AMOS-4                  
1 39237U 13045A   24155.57081226  .00000011  00000+0  00000+0 0  9995
2 39237   0.0084 318.7703 0002416  80.4319 123.7995  1.00272621 39509
AEHF-3 (USA 246)        
1 39256U 13050A   24155.62817111  .00000137  00000+0  00000+0 0  9997
2 39256   3.4434  72.9063 0045531 180.2757  70.4347  1.00270878 38212
ASTRA 2E                
1 39285U 13056A   24155.56358939  .00000154  00000+0  00000+0 0  9995
2 39285   0.0642  27.8459 0002692  34.2206  61.8014  1.00269658 38987
FM-6                    
1 39360U 13058A   24155.41374800 -.00000012  00000+0  00000+0 0  9994
2 39360   0.0162 328.0015 0000435 318.8827 358.2683  1.00270174 38604
RADUGA-1M 3             
1 39375U 13062A   24155.56489472  .00000158  00000+0  00000+0 0  9993
2 39375   4.0592  81.4560 0003154 207.4334 201.9611  1.00271464 38656
SES-8                   
1 39460U 13071A   24155.56527078 -.00000265  00000+0  00000+0 0  9993
2 39460   0.0174 306.1235 0002746 141.7130 103.1672  1.00270639 36975
INMARSAT 5-F1           
1 39476U 13073A   24155.49877924  .00000032  00000+0  00000+0 0  9993
2 39476   0.0215 349.8825 0000154 186.8075 317.8988  1.00270755 38139
TKSAT-1 (TUPAC KATARI)  
1 39481U 13075A   24155.54061542 -.00000190  00000+0  00000+0 0  9994
2 39481   0.0194 223.4419 0002426 194.6157 301.8279  1.00272235 38130
EXPRESS-AM5             
1 39487U 13077A   24155.57549560 -.00000276  00000+0  00000+0 0  9991
2 39487   0.0183 312.0610 0000149 321.1035 326.5662  1.00272669 38900
GSAT-14                 
1 39498U 14001A   24155.42948878 -.00000073  00000+0  00000+0 0  9995
2 39498   0.0241 258.0140 0001839  22.6035 200.3691  1.00271239 37939
THAICOM 6               
1 39500U 14002A   24155.07341380 -.00000117  00000+0  00000+0 0  9995
2 39500   0.0605 132.5127 0002869 351.4308 232.9885  1.00271292 37999
TDRS 12                 
1 39504U 14004A   24155.47824191 -.00000268  00000+0  00000+0 0  9998
2 39504   3.5530   3.0932 0003097 182.1053 198.5142  1.00270421 36821
ABS-2                   
1 39508U 14006A   24155.57281378 -.00000082  00000+0  00000+0 0  9993
2 39508   0.0148  28.0345 0003225  44.4155 101.1934  1.00271053 37825
ATHENA-FIDUS            
1 39509U 14006B   24155.56541686  .00000158  00000+0  00000+0 0  9997
2 39509   0.0162   1.1045 0001018  76.1296  56.6042  1.00272528 37627
TURKSAT 4A              
1 39522U 14007A   24155.28006476  .00000150  00000+0  00000+0 0  9997
2 39522   0.0155 272.8717 0000846  91.7898  30.3676  1.00272500 37516
EXPRESS-AT1             
1 39612U 14010A   24155.49747390  .00000083  00000+0  00000+0 0  9996
2 39612   0.0181 312.6681 0000413  57.7429 117.1247  1.00271167 37369
EXPRESS-AT2             
1 39613U 14010B   24155.57549560 -.00000277  00000+0  00000+0 0  9991
2 39613   0.0153 288.0584 0000283  45.3815 266.0958  1.00272131 37044
AMAZONAS 4A             
1 39616U 14011A   24155.47479900 -.00000247  00000+0  00000+0 0  9991
2 39616   0.0777 124.0496 0003415 319.1500 266.1341  1.00268710 37240
ASTRA 5B                
1 39617U 14011B   24155.20472773  .00000141  00000+0  00000+0 0  9996
2 39617   0.0433 334.7327 0001941  92.0319 282.5835  1.00272912 37205
IRNSS-1B                
1 39635U 14017A   24154.85314628  .00000092  00000+0  00000+0 0  9991
2 39635  29.0110 253.0703 0023340 183.7675 177.2054  1.00278542 37331
LUCH-5V                 
1 39727U 14023A   24155.56828112 -.00000266  00000+0  00000+0 0  9991
2 39727   3.2646  76.1372 0001768  42.7350  72.9882  1.00270825 36909
KAZSAT-3                
1 39728U 14023B   24155.56959395  .00000065  00000+0  00000+0 0  9996
2 39728   0.0192  64.7995 0000594  75.2259  16.0471  1.00268386 34999
EUTELSAT 3B             
1 39773U 14030A   24155.55854208  .00000024  00000+0  00000+0 0  9995
2 39773   0.0623   2.7825 0002658  96.5984 357.2637  1.00270925 36613
ASIASAT 8 (AMOS-7)      
1 40107U 14046A   24155.55706271 -.00000029  00000+0  00000+0 0  9997
2 40107   0.0038 205.8463 0001731 219.8781  23.4294  1.00270502 94689
ASIASAT 6               
1 40141U 14052A   24155.60188166 -.00000358  00000+0  00000+0 0  9990
2 40141   0.0162 352.9899 0000444  76.1815 159.9513  1.00268932 35615
OPTUS 10                
1 40146U 14054A   24155.58827984 -.00000144  00000+0  00000+0 0  9995
2 40146   0.0656  83.3732 0002780   7.1366 169.7690  1.00268246 35577
MEASAT-3B               
1 40147U 14054B   24155.57609163 -.00000237  00000+0  00000+0 0  9995
2 40147   0.0729  67.8168 0003384  11.2890 112.3028  1.00270274 35717
LUCH (OLYMP-K 1)        
1 40258U 14058A   24155.75840087 -.00000139  00000+0  00000+0 0  9995
2 40258   0.1134  93.6764 0001587 343.3287  70.5222  1.00265247 35481
HIMAWARI-8              
1 40267U 14060A   24155.05327145 -.00000272  00000+0  00000+0 0  9994
2 40267   0.0214  98.9341 0000679 344.9185 327.9844  1.00270897 35298
IRNSS-1C                
1 40269U 14061A   24155.43131625 -.00000158  00000+0  00000+0 0  9998
2 40269   4.6370 105.0863 0021193   3.1871  22.4349  1.00271690 35235
INTELSAT 30 (IS-30)     
1 40271U 14062A   24155.35796323 -.00000146  00000+0  00000+0 0  9992
2 40271   0.0102 342.9023 0001595 354.5092 308.7019  1.00270611 35138
ARSAT 1                 
1 40272U 14062B   24155.59192187 -.00000255  00000+0  00000+0 0  9998
2 40272   0.0300  45.6379 0001451  14.6558 333.5172  1.00271202 35157
EXPRESS-AM6             
1 40277U 14064A   24155.56846265  .00000102  00000+0  00000+0 0  9995
2 40277   0.0176 310.6582 0000487 189.8909   9.6126  1.00271795 34120
GSAT-16                 
1 40332U 14078A   24155.56889778  .00000089  00000+0  00000+0 0  9992
2 40332   0.0079  40.5670 0007355  40.5438  71.2624  1.00271236 34658
DIRECTV 14              
1 40333U 14078B   24155.24877109 -.00000121  00000+0  00000+0 0  9991
2 40333   0.0072 320.1279 0000230 256.1108  26.2692  1.00270241 34603
YAMAL 401               
1 40345U 14082A   24155.56021782 -.00000225  00000+0  00000+0 0  9997
2 40345   0.0181 340.8280 0000829 159.1684  44.1275  1.00273472 34462
ASTRA 2G                
1 40364U 14089A   24155.56350236  .00000154  00000+0  00000+0 0  9994
2 40364   0.0417 356.7553 0004814  72.2622  54.5486  1.00270625 34511
